[{"OBJECT_NAME":"WILDFIRE 6","OBJECT_ID":"2023-133G","EPOCH":"2026-03-09T22:36:17.475552","MEAN_MOTION":13.85319465,"ECCENTRICITY":0.0004585,"INCLINATION":80.992,"RA_OF_ASC_NODE":102.4593,"ARG_OF_PERICENTER":287.0723,"MEAN_ANOMALY":72.9931,"EPHEMERIS_TYPE":0,"CLASSIFICATION_TYPE":"U","NORAD_CAT_ID":57763,"ELEMENT_SET_NO":999,"REV_AT_EPOCH":12727,"BSTAR":5.6844456e-5,"MEAN_MOTION_DOT":7.6e-7,"MEAN_MOTION_DDOT":0},{"OBJECT_NAME":"DELTA 1 DEB","OBJECT_ID":"1975-052LF","EPOCH":"2026-03-09T05:19:54.654240","MEAN_MOTION":13.76645696,"ECCENTRICITY":0.0043061,"INCLINATION":99.6053,"RA_OF_ASC_NODE":338.525,"ARG_OF_PERICENTER":69.0828,"MEAN_ANOMALY":84.3384,"EPHEMERIS_TYPE":0,"CLASSIFICATION_TYPE":"U","NORAD_CAT_ID":27578,"ELEMENT_SET_NO":999,"REV_AT_EPOCH":24518,"BSTAR":0.0032550687,"MEAN_MOTION_DOT":3.172e-5,"MEAN_MOTION_DDOT":0}]
